{
  "norad_id": 57070,
  "name": "STARLINK-5828",
  "history": [
    {
      "epoch": "2026-03-28T17:33:16.065216Z",
      "apogee_km": 486.5771503384094,
      "perigee_km": 484.5944953638009,
      "latitude_deg": -1.4543004446481831e-05,
      "longitude_deg": -100.9645259287874,
      "height_km": 485.49061178577716,
      "semi_major_axis_km": 6863.722822851105,
      "eccentricity": 0.00014443,
      "inclination_deg": 43.0019,
      "raan_deg": 348.5001,
      "arg_perigee_deg": 262.594,
      "mean_anomaly_deg": 97.4747,
      "mean_motion_rev_day": 15.26733223
    },
    {
      "epoch": "2026-03-28T23:50:05.810784Z",
      "apogee_km": 486.54879298139167,
      "perigee_km": 484.598126468738,
      "latitude_deg": -6.105628498557723e-05,
      "longitude_deg": 163.09462082024828,
      "height_km": 485.4773711484904,
      "semi_major_axis_km": 6863.7104597250645,
      "eccentricity": 0.0001421,
      "inclination_deg": 43.0021,
      "raan_deg": 347.0245,
      "arg_perigee_deg": 262.5243,
      "mean_anomaly_deg": 97.5446,
      "mean_motion_rev_day": 15.26737348
    },
    {
      "epoch": "2026-03-30T02:31:36.538464Z",
      "apogee_km": 486.482425743131,
      "perigee_km": 484.65860138262724,
      "latitude_deg": 1.640764482223187e-05,
      "longitude_deg": 115.34877595251726,
      "height_km": 485.4334516805885,
      "semi_major_axis_km": 6863.707513562879,
      "eccentricity": 0.00013286,
      "inclination_deg": 43.0018,
      "raan_deg": 340.7528,
      "arg_perigee_deg": 264.5866,
      "mean_anomaly_deg": 95.4834,
      "mean_motion_rev_day": 15.26738331
    },
    {
      "epoch": "2026-03-30T16:39:31.615488Z",
      "apogee_km": 486.5242487315327,
      "perigee_km": 484.79772898541523,
      "latitude_deg": 3.492445393169711e-05,
      "longitude_deg": -100.53367043351521,
      "height_km": 485.64675724696497,
      "semi_major_axis_km": 6863.797988858474,
      "eccentricity": 0.00012577,
      "inclination_deg": 43.0005,
      "raan_deg": 337.4302,
      "arg_perigee_deg": 255.9817,
      "mean_anomaly_deg": 104.0895,
      "mean_motion_rev_day": 15.26708144
    },
    {
      "epoch": "2026-03-30T22:56:21.367968Z",
      "apogee_km": 486.44505527830006,
      "perigee_km": 484.85128436186733,
      "latitude_deg": -2.5548617737544402e-05,
      "longitude_deg": 163.52563295092517,
      "height_km": 485.5277256495128,
      "semi_major_axis_km": 6863.785169820083,
      "eccentricity": 0.0001161,
      "inclination_deg": 43.0003,
      "raan_deg": 335.9548,
      "arg_perigee_deg": 262.5767,
      "mean_anomaly_deg": 97.4952,
      "mean_motion_rev_day": 15.26712421
    }
  ]
}